COSMOS 2413 (712)       
1 28509U 04053B   15360.86410605  .00000059  00000-0  00000+0 0  9994
2 28509  63.1317 196.2702 0005596 159.8739 205.7927  2.13101810 85610
COSMOS 2419 (714)       
1 28915U 05050A   15360.14814439 -.00000029  00000-0  00000+0 0  9995
2 28915  65.2459  84.0431 0014324 350.5960 184.6148  2.13113019 77849
COSMOS 2425 (716)       
1 29670U 06062A   15360.45601155 -.00000061  00000-0  10000-3 0  9992
2 29670  65.7063 322.9927 0022723 339.2430 134.5984  2.13104963 70052
COSMOS 2426 (717)       
1 29671U 06062B   15360.12852919 -.00000062  00000-0  10000-3 0  9994
2 29671  65.7236 323.0815 0015882 174.0720 270.6757  2.13103019 70059
COSMOS 2424 (715)       
1 29672U 06062C   15361.15467339 -.00000058  00000-0  10000-3 0  9992
2 29672  65.7077 322.9788 0015300 173.1869 155.6098  2.13102107 70067
COSMOS 2433 (720)       
1 32275U 07052A   15360.67797014 -.00000027  00000-0  10000-3 0  9993
2 32275  65.2615  83.7928 0002973 237.9518 237.9177  2.13105025 63575
COSMOS 2432 (719)       
1 32276U 07052B   15360.17046271 -.00000029  00000-0  10000-3 0  9993
2 32276  65.2733  83.8732 0010661 334.7849  65.9709  2.13104228 63560
COSMOS 2434 (721)       
1 32393U 07065A   15360.13671500 -.00000063  00000-0  00000+0 0  9995
2 32393  65.3262 322.4089 0001290 128.5405 185.5774  2.13102761 62267
COSMOS 2436 (723)       
1 32395U 07065C   15361.08021571 -.00000059  00000-0  10000-3 0  9999
2 32395  65.3389 322.4166 0018012 345.5722  64.3494  2.13102788 62226
COSMOS 2443 (725)       
1 33379U 08046B   15361.03601275 -.00000026  00000-0  10000-3 0  9996
2 33379  65.1898  83.2143 0019193 185.2008 112.5721  2.13101447 56443
COSMOS 2456 (730)       
1 36111U 09070A   15361.10982853  .00000058  00000-0  00000+0 0  9992
2 36111  64.1863 201.9955 0003648 345.7404 163.6040  2.13103000 46955
COSMOS 2457 (733)       
1 36112U 09070B   15360.72659337  .00000062  00000-0  00000+0 0  9993
2 36112  64.1687 201.9397 0007276 147.1149 199.3098  2.13101694 46946
COSMOS 2458 (734)       
1 36113U 09070C   15359.85874987  .00000072  00000-0  10000-3 0  9992
2 36113  64.1736 201.9740 0002898  57.0175  30.8464  2.13102015 46930
COSMOS 2459 (731)       
1 36400U 10007A   15360.35776813 -.00000028  00000-0  10000-3 0  9991
2 36400  65.1683  82.9763 0027169 352.7044 104.4193  2.13102289 45299
COSMOS 2461 (735)       
1 36401U 10007B   15360.12428677 -.00000030  00000-0  10000-3 0  9992
2 36401  65.1612  82.9669 0005740  84.9600 103.5995  2.13102271 45280
COSMOS 2460 (732)       
1 36402U 10007C   15361.11406544 -.00000026  00000-0  10000-3 0  9997
2 36402  65.1518  82.9129 0001289 186.4899  83.5275  2.13101952 45305
COSMOS 2466 (738)       
1 37137U 10041A   15360.71332028 -.00000061  00000-0  10000-3 0  9990
2 37137  64.9098 322.5802 0018916 159.9707 100.1239  2.13102318 41376
COSMOS 2465 (737)       
1 37138U 10041B   15360.76589787 -.00000061  00000-0  00000+0 0  9997
2 37138  64.9267 322.6482 0033745 172.3777 310.5584  2.13102690 41376
COSMOS 2464 (736)       
1 37139U 10041C   15360.08951712 -.00000064  00000-0  00000+0 0  9997
2 37139  64.9291 322.6638 0021983   6.9527  91.6640  2.13102741 41369
COSMOS 2471 (701K)      
1 37372U 11009A   15360.17453932 -.00000029  00000-0  00000+0 0  9993
2 37372  65.1491  82.8946 0008458 228.9959 172.2523  2.13102975 37569
COSMOS 2474 (742)       
1 37829U 11055A   15361.11283944  .00000059  00000-0  00000+0 0  9992
2 37829  64.5099 202.3364 0005833 250.4138 123.4165  2.13101970 32951
COSMOS 2476 (744)       
1 37867U 11064A   15360.37219015  .00000066  00000-0  00000+0 0  9997
2 37867  64.4906 202.4470 0014616 246.2798 325.1037  2.13102072 32281
COSMOS 2477 (745)       
1 37868U 11064B   15360.13118821  .00000069  00000-0  00000+0 0  9998
2 37868  64.4988 202.4937 0012645 247.4956 318.4132  2.13101991 32234
COSMOS 2475 (743)       
1 37869U 11064C   15360.31622116  .00000067  00000-0  00000+0 0  9994
2 37869  64.5063 202.4737 0018421 279.0097  24.8936  2.13102232 32243
COSMOS 2478 (746)       
1 37938U 11071A   15360.52650534 -.00000028  00000-0  00000+0 0  9995
2 37938  65.1757  83.0983 0014173 238.1002 195.0349  2.13088310 31861
COSMOS 2485 (747)       
1 39155U 13019A   15360.73518731  .00000063  00000-0  00000+0 0  9995
2 39155  64.6594 202.3470 0014946 240.0169 295.0475  2.13102138 20761
COSMOS 2492 (754)       
1 39620U 14012A   15361.15986899 -.00000026  00000-0  10000-3 0  9992
2 39620  65.0405  82.9234 0014421 330.7969 202.7120  2.13103507 13728
COSMOS 2500 (755)       
1 40001U 14032A   15360.39018539 -.00000029  00000-0  00000+0 0  9999
2 40001  64.9807  82.9876 0007308 201.9545 325.1337  2.13102897 11925
COSMOS 2501 (702K)      
1 40315U 14075A   15360.65199741 -.00000063  00000-0  00000+0 0  9996
2 40315  64.6970 324.1555 0018643 240.7649 289.3140  2.13101398  8335
